{
    "links": {
        "self": "http://www.neowsapp.com/rest/v1/neo/3451021?api_key=iIulBulltgU6a56xZRHN4H3l9WmuAYTsLGpBGhQ2"
    },
    "id": "3451021",
    "neo_reference_id": "3451021",
    "name": "(2009 EH3)",
    "designation": "2009 EH3",
    "nasa_jpl_url": "http://ssd.jpl.nasa.gov/sbdb.cgi?sstr=3451021",
    "absolute_magnitude_h": 24.2,
    "estimated_diameter": {
        "kilometers": {
            "estimated_diameter_min": 0.0384197891,
            "estimated_diameter_max": 0.0859092601
        },
        "meters": {
            "estimated_diameter_min": 38.4197891064,
            "estimated_diameter_max": 85.9092601232
        },
        "miles": {
            "estimated_diameter_min": 0.0238729428,
            "estimated_diameter_max": 0.0533815229
        },
        "feet": {
            "estimated_diameter_min": 126.0491808919,
            "estimated_diameter_max": 281.8545369825
        }
    },
    "is_potentially_hazardous_asteroid": false,
    "close_approach_data": [
        {
            "close_approach_date": "2009-03-03",
            "close_approach_date_full": "2009-Mar-03 23:45",
            "epoch_date_close_approach": 1236123900000,
            "relative_velocity": {
                "kilometers_per_second": "15.7525982232",
                "kilometers_per_hour": "56709.3536034523",
                "miles_per_hour": "35236.986965434"
            },
            "miss_distance": {
                "astronomical": "0.0151744828",
                "lunar": "5.9028738092",
                "kilometers": "2270070.305231636",
                "miles": "1410556.2793071368"
            },
            "orbiting_body": "Earth"
        },
        {
            "close_approach_date": "2073-11-09",
            "close_approach_date_full": "2073-Nov-09 17:42",
            "epoch_date_close_approach": 3277474920000,
            "relative_velocity": {
                "kilometers_per_second": "11.6451673484",
                "kilometers_per_hour": "41922.6024541291",
                "miles_per_hour": "26049.0748415671"
            },
            "miss_distance": {
                "astronomical": "0.15565331",
                "lunar": "60.54913759",
                "kilometers": "23285403.6344497",
                "miles": "14468878.88761786"
            },
            "orbiting_body": "Earth"
        },
        {
            "close_approach_date": "2090-09-28",
            "close_approach_date_full": "2090-Sep-28 15:16",
            "epoch_date_close_approach": 3810294960000,
            "relative_velocity": {
                "kilometers_per_second": "27.6683593567",
                "kilometers_per_hour": "99606.0936839893",
                "miles_per_hour": "61891.353044921"
            },
            "miss_distance": {
                "astronomical": "0.4285635539",
                "lunar": "166.7112224671",
                "kilometers": "64112194.823070193",
                "miles": "39837470.5749989434"
            },
            "orbiting_body": "Earth"
        }
    ],
    "orbital_data": {
        "orbit_id": "8",
        "orbit_determination_date": "2017-04-06 09:01:03",
        "first_observation_date": "2009-03-15",
        "last_observation_date": "2009-03-28",
        "data_arc_in_days": 13,
        "observations_used": 26,
        "orbit_uncertainty": "8",
        "minimum_orbit_intersection": ".00498708",
        "jupiter_tisserand_invariant": "3.578",
        "epoch_osculation": "2454907.5",
        "eccentricity": ".6144094154270092",
        "semi_major_axis": "1.996306361736731",
        "inclination": "6.235268450939478",
        "ascending_node_longitude": "159.6317591863848",
        "orbital_period": "1030.241910255946",
        "perihelion_distance": ".7697569370088464",
        "perihelion_argument": "297.1355742379966",
        "aphelion_distance": "3.222855786464615",
        "perihelion_time": "2454851.937612226260",
        "mean_anomaly": "19.41530372568238",
        "mean_motion": ".3494324938795823",
        "equinox": "J2000",
        "orbit_class": {
            "orbit_class_type": "APO",
            "orbit_class_description": "Near-Earth asteroid orbits which cross the Earth’s orbit similar to that of 1862 Apollo",
            "orbit_class_range": "a (semi-major axis) > 1.0 AU; q (perihelion) < 1.017 AU"
        }
    },
    "is_sentry_object": false
}